id,0500000US13057,STATE,13,COUNTY,057,name,Cherokee,Active,319,Inactive,45,Emeritus,21,Shorthand_FIPS,57,region,13057,householdsHalfMileofPublicTransport,15218,pctHouseholdsHalfMileofPublicTransport,6.9,HomeInternetAccessRange,61-81,PctHouseholdsNOvehicle,2.8,PctPopNONEnglishHome,11.6,pctPopLEQpovertylevel,10.3,HomeInternetAccessRangeLow,61,HomeInternetAccessRangeHigh,81,LSAD,County,CENSUSAREA,421.674000
id,0500000US13059,STATE,13,COUNTY,059,name,Clarke,Active,407,Inactive,63,Emeritus,23,Shorthand_FIPS,59,region,13059,householdsHalfMileofPublicTransport,80991,pctHouseholdsHalfMileofPublicTransport,67.7,HomeInternetAccessRange,61-81,PctHouseholdsNOvehicle,7.3,PctPopNONEnglishHome,13.9,pctPopLEQpovertylevel,35.7,HomeInternetAccessRangeLow,61,HomeInternetAccessRangeHigh,81,LSAD,County,CENSUSAREA,119.200000 
id,0500000US13063,STATE,13,COUNTY,063,name,Clayton,Active,302,Inactive,13,Emeritus,4,Shorthand_FIPS,63,region,13063,householdsHalfMileofPublicTransport,50541,pctHouseholdsHalfMileofPublicTransport,19.1,HomeInternetAccessRange,41-60,PctHouseholdsNOvehicle,7.4,PctPopNONEnglishHome,20.3,pctPopLEQpovertylevel,24.8,HomeInternetAccessRangeLow,41,HomeInternetAccessRangeHigh,60,LSAD,County,CENSUSAREA,141.570000
id,0500000US13065,STATE,13,COUNTY,065,name,Clinch,Active,10,Inactive,0,Emeritus,0,Shorthand_FIPS,65,region,13065,householdsHalfMileofPublicTransport,0,pctHouseholdsHalfMileofPublicTransport,0,HomeInternetAccessRange,1-20,PctHouseholdsNOvehicle,12.1,PctPopNONEnglishHome,2.4,pctPopLEQpovertylevel,34.6,HomeInternetAccessRangeLow,1,HomeInternetAccessRangeHigh,20,LSAD,County,CENSUSAREA,800.222000
id,0500000US13001,STATE,13,COUNTY,001,name,Appling,Active,10,Inactive,0,Emeritus,1,Shorthand_FIPS,1,region,13001,householdsHalfMileofPublicTransport,0,pctHouseholdsHalfMileofPublicTransport,0,HomeInternetAccessRange,1-20,PctHouseholdsNOvehicle,8.1,PctPopNONEnglishHome,9.3,pctPopLEQpovertylevel,22.5,HomeInternetAccessRangeLow,1,HomeInternetAccessRangeHigh,20,LSAD,County,CENSUSAREA,507.081000
id,0500000US13061,STATE,13,COUNTY,061,name,Clay,Active,0,Inactive,0,Emeritus,0,Shorthand_FIPS,61,region,13061,householdsHalfMileofPublicTransport,0,pctHouseholdsHalfMileofPublicTransport,0,HomeInternetAccessRange,1-20,PctHouseholdsNOvehicle,26.6,PctPopNONEnglishHome,3.2,pctPopLEQpovertylevel,45.8,HomeInternetAccessRangeLow,1,HomeInternetAccessRangeHigh,20,LSAD,County,CENSUSAREA,195.381000
id,0500000US13007,STATE,13,COUNTY,007,name,Baker,Active,0,Inactive,0,Emeritus,0,Shorthand_FIPS,7,region,13007,householdsHalfMileofPublicTransport,0,pctHouseholdsHalfMileofPublicTransport,0,HomeInternetAccessRange,1-20,PctHouseholdsNOvehicle,8.9,PctPopNONEnglishHome,0.3,pctPopLEQpovertylevel,22.6,HomeInternetAccessRangeLow,1,HomeInternetAccessRangeHigh,20,LSAD,County,CENSUSAREA,341.944000 
id,0500000US13009,STATE,13,COUNTY,009,name,Baldwin,Active,60,Inactive,4,Emeritus,3,Shorthand_FIPS,9,region,13009,householdsHalfMileofPublicTransport,0,pctHouseholdsHalfMileofPublicTransport,0,HomeInternetAccessRange,21-40,PctHouseholdsNOvehicle,7.9,PctPopNONEnglishHome,3.6,pctPopLEQpovertylevel,32.1,HomeInternetAccessRangeLow,21,HomeInternetAccessRangeHigh,40,LSAD,County,CENSUSAREA,257.844000
id,0500000US13009,STATE,13,COUNTY,013,name,Barrow,Active,61,Inactive,6,Emeritus,3,Shorthand_FIPS,13,region,13013,householdsHalfMileofPublicTransport,0,pctHouseholdsHalfMileofPublicTransport,0,HomeInternetAccessRange,41-60,PctHouseholdsNOvehicle,3.7,PctPopNONEnglishHome,11.8,pctPopLEQpovertylevel,13.5,HomeInternetAccessRangeLow,41,HomeInternetAccessRangeHigh,60,LSAD,County,CENSUSAREA,160.309000 
id,0500000US13015,STATE,13,COUNTY,015,name,Bartow,Active,120,Inactive,6,Emeritus,4,Shorthand_FIPS,15,region,13015,householdsHalfMileofPublicTransport,0,pctHouseholdsHalfMileofPublicTransport,0,HomeInternetAccessRange,41-60,PctHouseholdsNOvehicle,4.7,PctPopNONEnglishHome,7.7,pctPopLEQpovertylevel,16.3,HomeInternetAccessRangeLow,41,HomeInternetAccessRangeHigh,60,LSAD,County,CENSUSAREA,459.544000 
id,0500000US13019,STATE,13,COUNTY,019,name,Berrien,Active,12,Inactive,2,Emeritus,0,Shorthand_FIPS,19,region,13019,householdsHalfMileofPublicTransport,0,pctHouseholdsHalfMileofPublicTransport,0,HomeInternetAccessRange,1-20,PctHouseholdsNOvehicle,8.7,PctPopNONEnglishHome,5.2,pctPopLEQpovertylevel,25.3,HomeInternetAccessRangeLow,1,HomeInternetAccessRangeHigh,20,LSAD,County,CENSUSAREA,451.897000 
id,0500000US13021,STATE,13,COUNTY,021,name,Bibb,Active,668,Inactive,49,Emeritus,38,Shorthand_FIPS,21,region,13021,householdsHalfMileofPublicTransport,87150,pctHouseholdsHalfMileofPublicTransport,56.1,HomeInternetAccessRange,41-60,PctHouseholdsNOvehicle,11.9,PctPopNONEnglishHome,5,pctPopLEQpovertylevel,26.7,HomeInternetAccessRangeLow,41,HomeInternetAccessRangeHigh,60,LSAD,County,CENSUSAREA,249.762000
id,0500000US13025,STATE,13,COUNTY,025,name,Brantley,Active,3,Inactive,1,Emeritus,0,Shorthand_FIPS,25,region,13025,householdsHalfMileofPublicTransport,0,pctHouseholdsHalfMileofPublicTransport,0,HomeInternetAccessRange,1-20,PctHouseholdsNOvehicle,4.7,PctPopNONEnglishHome,1.4,pctPopLEQpovertylevel,20.9,HomeInternetAccessRangeLow,1,HomeInternetAccessRangeHigh,20,LSAD,County,CENSUSAREA,442.362000
id,0500000US13027,STATE,13,COUNTY,027,name,Brooks,Active,6,Inactive,1,Emeritus,1,Shorthand_FIPS,27,region,13027,householdsHalfMileofPublicTransport,0,pctHouseholdsHalfMileofPublicTransport,0,HomeInternetAccessRange,1-20,PctHouseholdsNOvehicle,6.8,PctPopNONEnglishHome,6.8,pctPopLEQpovertylevel,27.8,HomeInternetAccessRangeLow,1,HomeInternetAccessRangeHigh,20,LSAD,County,CENSUSAREA,493.046000
id,0500000US13029,STATE,13,COUNTY,029,name,Bryan,Active,38,Inactive,5,Emeritus,0,Shorthand_FIPS,29,region,13029,householdsHalfMileofPublicTransport,0,pctHouseholdsHalfMileofPublicTransport,0,HomeInternetAccessRange,41-60,PctHouseholdsNOvehicle,2.9,PctPopNONEnglishHome,5.6,pctPopLEQpovertylevel,12.6,HomeInternetAccessRangeLow,41,HomeInternetAccessRangeHigh,60,LSAD,County,CENSUSAREA,435.967000
id,0500000US13033,STATE,13,COUNTY,033,name,Burke,Active,5,Inactive,2,Emeritus,1,Shorthand_FIPS,33,region,13033,householdsHalfMileofPublicTransport,0,pctHouseholdsHalfMileofPublicTransport,0,HomeInternetAccessRange,21-40,PctHouseholdsNOvehicle,9,PctPopNONEnglishHome,3.1,pctPopLEQpovertylevel,33.7,HomeInternetAccessRangeLow,21,HomeInternetAccessRangeHigh,40,LSAD,County,CENSUSAREA,826.968000 
id,0500000US13039,STATE,13,COUNTY,039,name,Camden,Active,35,Inactive,3,Emeritus,3,Shorthand_FIPS,39,region,13039,householdsHalfMileofPublicTransport,0,pctHouseholdsHalfMileofPublicTransport,0,HomeInternetAccessRange,41-60,PctHouseholdsNOvehicle,5.1,PctPopNONEnglishHome,5.6,pctPopLEQpovertylevel,13.2,HomeInternetAccessRangeLow,41,HomeInternetAccessRangeHigh,60,LSAD,County,CENSUSAREA,613.025000 
id,0500000US13049,STATE,13,COUNTY,049,name,Charlton,Active,2,Inactive,1,Emeritus,0,Shorthand_FIPS,49,region,13049,householdsHalfMileofPublicTransport,0,pctHouseholdsHalfMileofPublicTransport,0,HomeInternetAccessRange,1-20,PctHouseholdsNOvehicle,10.8,PctPopNONEnglishHome,7.9,pctPopLEQpovertylevel,18,HomeInternetAccessRangeLow,1,HomeInternetAccessRangeHigh,20,LSAD,County,CENSUSAREA,773.576000
id,0500000US13051,STATE,13,COUNTY,051,name,Chatham,Active,903,Inactive,70,Emeritus,37,Shorthand_FIPS,51,region,13051,householdsHalfMileofPublicTransport,174484,pctHouseholdsHalfMileofPublicTransport,63.4,HomeInternetAccessRange,61-81,PctHouseholdsNOvehicle,8.1,PctPopNONEnglishHome,8.5,pctPopLEQpovertylevel,19.3,HomeInternetAccessRangeLow,61,HomeInternetAccessRangeHigh,81,LSAD,County,CENSUSAREA,426.437000 
id,0500000US13075,STATE,13,COUNTY,075,name,Cook,Active,17,Inactive,1,Emeritus,1,Shorthand_FIPS,75,region,13075,householdsHalfMileofPublicTransport,0,pctHouseholdsHalfMileofPublicTransport,0,HomeInternetAccessRange,1-20,PctHouseholdsNOvehicle,7.1,PctPopNONEnglishHome,5.5,pctPopLEQpovertylevel,25.1,HomeInternetAccessRangeLow,1,HomeInternetAccessRangeHigh,20,LSAD,County,CENSUSAREA,227.162000
id,0500000US13079,STATE,13,COUNTY,079,name,Crawford,Active,6,Inactive,0,Emeritus,0,Shorthand_FIPS,79,region,13079,householdsHalfMileofPublicTransport,0,pctHouseholdsHalfMileofPublicTransport,0,HomeInternetAccessRange,1-20,PctHouseholdsNOvehicle,5.4,PctPopNONEnglishHome,2.7,pctPopLEQpovertylevel,17.3,HomeInternetAccessRangeLow,1,HomeInternetAccessRangeHigh,20,LSAD,County,CENSUSAREA,324.888000
id,0500000US13081,STATE,13,COUNTY,081,name,Crisp,Active,35,Inactive,2,Emeritus,0,Shorthand_FIPS,81,region,13081,householdsHalfMileofPublicTransport,0,pctHouseholdsHalfMileofPublicTransport,0,HomeInternetAccessRange,21-40,PctHouseholdsNOvehicle,9.9,PctPopNONEnglishHome,4.4,pctPopLEQpovertylevel,31.7,HomeInternetAccessRangeLow,21,HomeInternetAccessRangeHigh,40,LSAD,County,CENSUSAREA,272.583000
id,0500000US13089,STATE,13,COUNTY,089,name,DeKalb,Active,3074,Inactive,471,Emeritus,135,Shorthand_FIPS,89,region,13089,householdsHalfMileofPublicTransport,554802,pctHouseholdsHalfMileofPublicTransport,78.5,HomeInternetAccessRange,61-81,PctHouseholdsNOvehicle,9.3,PctPopNONEnglishHome,18.8,pctPopLEQpovertylevel,19.6,HomeInternetAccessRangeLow,61,HomeInternetAccessRangeHigh,81,LSAD,County,CENSUSAREA,267.582000
id,0500000US13103,STATE,13,COUNTY,103,name,Effingham,Active,30,Inactive,3,Emeritus,0,Shorthand_FIPS,103,region,13103,householdsHalfMileofPublicTransport,0,pctHouseholdsHalfMileofPublicTransport,0,HomeInternetAccessRange,41-60,PctHouseholdsNOvehicle,3.1,PctPopNONEnglishHome,4.6,pctPopLEQpovertylevel,10.5,HomeInternetAccessRangeLow,41,HomeInternetAccessRangeHigh,60,LSAD,County,CENSUSAREA,477.700000
id,0500000US13105,STATE,13,COUNTY,105,name,Elbert,Active,23,Inactive,3,Emeritus,3,Shorthand_FIPS,105,region,13105,householdsHalfMileofPublicTransport,0,pctHouseholdsHalfMileofPublicTransport,0,HomeInternetAccessRange,1-20,PctHouseholdsNOvehicle,7.3,PctPopNONEnglishHome,5.6,pctPopLEQpovertylevel,20.5,HomeInternetAccessRangeLow,1,HomeInternetAccessRangeHigh,20,LSAD,County,CENSUSAREA,351.055000
id,0500000US13107,STATE,13,COUNTY,107,name,Emanuel,Active,23,Inactive,3,Emeritus,0,Shorthand_FIPS,107,region,13107,householdsHalfMileofPublicTransport,0,pctHouseholdsHalfMileofPublicTransport,0,HomeInternetAccessRange,21-40,PctHouseholdsNOvehicle,9.8,PctPopNONEnglishHome,4.5,pctPopLEQpovertylevel,30.8,HomeInternetAccessRangeLow,21,HomeInternetAccessRangeHigh,40,LSAD,County,CENSUSAREA,680.604000
id,0500000US13113,STATE,13,COUNTY,113,name,Fayette,Active,279,Inactive,33,Emeritus,13,Shorthand_FIPS,113,region,13113,householdsHalfMileofPublicTransport,136,pctHouseholdsHalfMileofPublicTransport,0.1,HomeInternetAccessRange,61-81,PctHouseholdsNOvehicle,2.4,PctPopNONEnglishHome,11.7,pctPopLEQpovertylevel,8.1,HomeInternetAccessRangeLow,61,HomeInternetAccessRangeHigh,81,LSAD,County,CENSUSAREA,194.342000
id,0500000US13121,STATE,13,COUNTY,121,name,Fulton,Active,13752,Inactive,1083,Emeritus,362,Shorthand_FIPS,121,region,13121,householdsHalfMileofPublicTransport,622783,pctHouseholdsHalfMileofPublicTransport,64.4,HomeInternetAccessRange,61-80,PctHouseholdsNOvehicle,12,PctPopNONEnglishHome,16.6,pctPopLEQpovertylevel,17.8,HomeInternetAccessRangeLow,61,HomeInternetAccessRangeHigh,80,LSAD,County,CENSUSAREA,526.635000
id,0500000US13127,STATE,13,COUNTY,127,name,Glynn,Active,268,Inactive,39,Emeritus,26,Shorthand_FIPS,127,region,13127,householdsHalfMileofPublicTransport,0,pctHouseholdsHalfMileofPublicTransport,0,HomeInternetAccessRange,61-81,PctHouseholdsNOvehicle,6.8,PctPopNONEnglishHome,9.5,pctPopLEQpovertylevel,19.7,HomeInternetAccessRangeLow,61,HomeInternetAccessRangeHigh,81,LSAD,County,CENSUSAREA,419.753000
id,0500000US13131,STATE,13,COUNTY,131,name,Grady,Active,12,Inactive,0,Emeritus,0,Shorthand_FIPS,131,region,13131,householdsHalfMileofPublicTransport,0,pctHouseholdsHalfMileofPublicTransport,0,HomeInternetAccessRange,1-20,PctHouseholdsNOvehicle,9.7,PctPopNONEnglishHome,9.9,pctPopLEQpovertylevel,31.1,HomeInternetAccessRangeLow,1,HomeInternetAccessRangeHigh,20,LSAD,County,CENSUSAREA,454.527000
id,0500000US13135,STATE,13,COUNTY,135,name,Gwinnett,Active,1842,Inactive,143,Emeritus,42,Shorthand_FIPS,135,region,13135,householdsHalfMileofPublicTransport,187017,pctHouseholdsHalfMileofPublicTransport,22.2,HomeInternetAccessRange,61-81,PctHouseholdsNOvehicle,3.1,PctPopNONEnglishHome,33.2,pctPopLEQpovertylevel,13.8,HomeInternetAccessRangeLow,61,HomeInternetAccessRangeHigh,81,LSAD,County,CENSUSAREA,430.383000
id,0500000US13137,STATE,13,COUNTY,137,name,Habersham,Active,57,Inactive,5,Emeritus,9,Shorthand_FIPS,137,region,13137,householdsHalfMileofPublicTransport,0,pctHouseholdsHalfMileofPublicTransport,0,HomeInternetAccessRange,1-20,PctHouseholdsNOvehicle,5.2,PctPopNONEnglishHome,14,pctPopLEQpovertylevel,17.8,HomeInternetAccessRangeLow,1,HomeInternetAccessRangeHigh,20,LSAD,County,CENSUSAREA,276.740000
id,0500000US13141,STATE,13,COUNTY,141,name,Hancock,Active,5,Inactive,0,Emeritus,1,Shorthand_FIPS,141,region,13141,householdsHalfMileofPublicTransport,0,pctHouseholdsHalfMileofPublicTransport,0,HomeInternetAccessRange,21-40,PctHouseholdsNOvehicle,12.3,PctPopNONEnglishHome,2.8,pctPopLEQpovertylevel,32.6,HomeInternetAccessRangeLow,21,HomeInternetAccessRangeHigh,40,LSAD,County,CENSUSAREA,471.841000
id,0500000US13149,STATE,13,COUNTY,149,name,Heard,Active,6,Inactive,0,Emeritus,0,Shorthand_FIPS,149,region,13149,householdsHalfMileofPublicTransport,0,pctHouseholdsHalfMileofPublicTransport,0,HomeInternetAccessRange,21-40,PctHouseholdsNOvehicle,5.1,PctPopNONEnglishHome,0.2,pctPopLEQpovertylevel,22.7,HomeInternetAccessRangeLow,21,HomeInternetAccessRangeHigh,40,LSAD,County,CENSUSAREA,296.030000
id,0500000US13151,STATE,13,COUNTY,151,name,Henry,Active,286,Inactive,16,Emeritus,6,Shorthand_FIPS,151,region,13151,householdsHalfMileofPublicTransport,1976,pctHouseholdsHalfMileofPublicTransport,0.9,HomeInternetAccessRange,61-81,PctHouseholdsNOvehicle,2.9,PctPopNONEnglishHome,9.7,pctPopLEQpovertylevel,12.8,HomeInternetAccessRangeLow,61,HomeInternetAccessRangeHigh,81,LSAD,County,CENSUSAREA,322.127000
id,0500000US13163,STATE,13,COUNTY,163,name,Jefferson,Active,9,Inactive,0,Emeritus,0,Shorthand_FIPS,163,region,13163,householdsHalfMileofPublicTransport,0,pctHouseholdsHalfMileofPublicTransport,0,HomeInternetAccessRange,1-20,PctHouseholdsNOvehicle,15.2,PctPopNONEnglishHome,3.1,pctPopLEQpovertylevel,31.8,HomeInternetAccessRangeLow,1,HomeInternetAccessRangeHigh,20,LSAD,County,CENSUSAREA,526.485000
id,0500000US13171,STATE,13,COUNTY,171,name,Lamar,Active,7,Inactive,0,Emeritus,1,Shorthand_FIPS,171,region,13171,householdsHalfMileofPublicTransport,0,pctHouseholdsHalfMileofPublicTransport,0,HomeInternetAccessRange,21-40,PctHouseholdsNOvehicle,6.1,PctPopNONEnglishHome,2.8,pctPopLEQpovertylevel,19.9,HomeInternetAccessRangeLow,21,HomeInternetAccessRangeHigh,40,LSAD,County,CENSUSAREA,183.500000
id,0500000US13179,STATE,13,COUNTY,179,name,Liberty,Active,55,Inactive,0,Emeritus,0,Shorthand_FIPS,179,region,13179,householdsHalfMileofPublicTransport,0,pctHouseholdsHalfMileofPublicTransport,0,HomeInternetAccessRange,41-60,PctHouseholdsNOvehicle,5.9,PctPopNONEnglishHome,11.3,pctPopLEQpovertylevel,18.2,HomeInternetAccessRangeLow,41,HomeInternetAccessRangeHigh,60,LSAD,County,CENSUSAREA,489.801000
id,0500000US13183,STATE,13,COUNTY,183,name,Long,Active,1,Inactive,0,Emeritus,0,Shorthand_FIPS,183,region,13183,householdsHalfMileofPublicTransport,0,pctHouseholdsHalfMileofPublicTransport,0,HomeInternetAccessRange,21-40,PctHouseholdsNOvehicle,5.6,PctPopNONEnglishHome,9,pctPopLEQpovertylevel,18.5,HomeInternetAccessRangeLow,21,HomeInternetAccessRangeHigh,40,LSAD,County,CENSUSAREA,400.293000
id,0500000US13185,STATE,13,COUNTY,185,name,Lowndes,Active,212,Inactive,13,Emeritus,7,Shorthand_FIPS,185,region,13185,householdsHalfMileofPublicTransport,0,pctHouseholdsHalfMileofPublicTransport,0,HomeInternetAccessRange,21-40,PctHouseholdsNOvehicle,7.5,PctPopNONEnglishHome,6.1,pctPopLEQpovertylevel,25.3,HomeInternetAccessRangeLow,21,HomeInternetAccessRangeHigh,40,LSAD,County,CENSUSAREA,496.066000
id,0500000US13189,STATE,13,COUNTY,189,name,McDuffie,Active,24,Inactive,1,Emeritus,1,Shorthand_FIPS,189,region,13189,householdsHalfMileofPublicTransport,0,pctHouseholdsHalfMileofPublicTransport,0,HomeInternetAccessRange,21-40,PctHouseholdsNOvehicle,8.5,PctPopNONEnglishHome,2.6,pctPopLEQpovertylevel,23.3,HomeInternetAccessRangeLow,21,HomeInternetAccessRangeHigh,40,LSAD,County,CENSUSAREA,257.461000
id,0500000US13191,STATE,13,COUNTY,191,name,McIntosh,Active,18,Inactive,2,Emeritus,2,Shorthand_FIPS,191,region,13191,householdsHalfMileofPublicTransport,0,pctHouseholdsHalfMileofPublicTransport,0,HomeInternetAccessRange,1-20,PctHouseholdsNOvehicle,5.4,PctPopNONEnglishHome,2.6,pctPopLEQpovertylevel,18.1,HomeInternetAccessRangeLow,1,HomeInternetAccessRangeHigh,20,LSAD,County,CENSUSAREA,424.299000
id,0500000US13195,STATE,13,COUNTY,195,name,Madison,Active,14,Inactive,5,Emeritus,0,Shorthand_FIPS,195,region,13195,householdsHalfMileofPublicTransport,0,pctHouseholdsHalfMileofPublicTransport,0,HomeInternetAccessRange,1-20,PctHouseholdsNOvehicle,3.8,PctPopNONEnglishHome,5.1,pctPopLEQpovertylevel,18.5,HomeInternetAccessRangeLow,1,HomeInternetAccessRangeHigh,20,LSAD,County,CENSUSAREA,282.311000
id,0500000US13201,STATE,13,COUNTY,201,name,Miller,Active,10,Inactive,0,Emeritus,1,Shorthand_FIPS,201,region,13201,householdsHalfMileofPublicTransport,0,pctHouseholdsHalfMileofPublicTransport,0,HomeInternetAccessRange,1-20,PctHouseholdsNOvehicle,8.6,PctPopNONEnglishHome,1,pctPopLEQpovertylevel,26.2,HomeInternetAccessRangeLow,1,HomeInternetAccessRangeHigh,20,LSAD,County,CENSUSAREA,282.421000
id,0500000US13213,STATE,13,COUNTY,213,name,Murray,Active,9,Inactive,1,Emeritus,0,Shorthand_FIPS,213,region,13213,householdsHalfMileofPublicTransport,0,pctHouseholdsHalfMileofPublicTransport,0,HomeInternetAccessRange,21-40,PctHouseholdsNOvehicle,4.5,PctPopNONEnglishHome,13.2,pctPopLEQpovertylevel,20.8,HomeInternetAccessRangeLow,21,HomeInternetAccessRangeHigh,40,LSAD,County,CENSUSAREA,344.466000
id,0500000US13217,STATE,13,COUNTY,217,name,Newton,Active,95,Inactive,5,Emeritus,11,Shorthand_FIPS,217,region,13217,householdsHalfMileofPublicTransport,0,pctHouseholdsHalfMileofPublicTransport,0,HomeInternetAccessRange,41-60,PctHouseholdsNOvehicle,4.5,PctPopNONEnglishHome,6.8,pctPopLEQpovertylevel,16.6,HomeInternetAccessRangeLow,41,HomeInternetAccessRangeHigh,60,LSAD,County,CENSUSAREA,272.161000
id,0500000US13219,STATE,13,COUNTY,219,name,Oconee,Active,99,Inactive,18,Emeritus,3,Shorthand_FIPS,219,region,13219,householdsHalfMileofPublicTransport,0,pctHouseholdsHalfMileofPublicTransport,0,HomeInternetAccessRange,21-40,PctHouseholdsNOvehicle,2.4,PctPopNONEnglishHome,7.4,pctPopLEQpovertylevel,8.2,HomeInternetAccessRangeLow,21,HomeInternetAccessRangeHigh,40,LSAD,County,CENSUSAREA,184.290000
id,0500000US13221,STATE,13,COUNTY,221,name,Oglethorpe,Active,6,Inactive,1,Emeritus,2,Shorthand_FIPS,221,region,13221,householdsHalfMileofPublicTransport,0,pctHouseholdsHalfMileofPublicTransport,0,HomeInternetAccessRange,1-20,PctHouseholdsNOvehicle,3.1,PctPopNONEnglishHome,4.2,pctPopLEQpovertylevel,14.6,HomeInternetAccessRangeLow,1,HomeInternetAccessRangeHigh,20,LSAD,County,CENSUSAREA,439.012000
id,0500000US13223,STATE,13,COUNTY,223,name,Paulding,Active,93,Inactive,12,Emeritus,1,Shorthand_FIPS,223,region,13223,householdsHalfMileofPublicTransport,1027,pctHouseholdsHalfMileofPublicTransport,0.7,HomeInternetAccessRange,61-81,PctHouseholdsNOvehicle,3,PctPopNONEnglishHome,6.4,pctPopLEQpovertylevel,12.7,HomeInternetAccessRangeLow,61,HomeInternetAccessRangeHigh,81,LSAD,County,CENSUSAREA,312.219000
id,0500000US13229,STATE,13,COUNTY,229,name,Pierce,Active,9,Inactive,0,Emeritus,0,Shorthand_FIPS,229,region,13229,householdsHalfMileofPublicTransport,0,pctHouseholdsHalfMileofPublicTransport,0,HomeInternetAccessRange,1-20,PctHouseholdsNOvehicle,4.8,PctPopNONEnglishHome,5.5,pctPopLEQpovertylevel,20,HomeInternetAccessRangeLow,1,HomeInternetAccessRangeHigh,20,LSAD,County,CENSUSAREA,316.494000
id,0500000US13241,STATE,13,COUNTY,241,name,Rabun,Active,32,Inactive,3,Emeritus,6,Shorthand_FIPS,241,region,13241,householdsHalfMileofPublicTransport,0,pctHouseholdsHalfMileofPublicTransport,0,HomeInternetAccessRange,1-20,PctHouseholdsNOvehicle,3.3,PctPopNONEnglishHome,9.9,pctPopLEQpovertylevel,23.7,HomeInternetAccessRangeLow,1,HomeInternetAccessRangeHigh,20,LSAD,County,CENSUSAREA,369.993000
id,0500000US13245,STATE,13,COUNTY,245,name,Richmond,Active,451,Inactive,25,Emeritus,15,Shorthand_FIPS,245,region,13245,householdsHalfMileofPublicTransport,89386,pctHouseholdsHalfMileofPublicTransport,44.4,HomeInternetAccessRange,41-60,PctHouseholdsNOvehicle,9.9,PctPopNONEnglishHome,5.8,pctPopLEQpovertylevel,25.4,HomeInternetAccessRangeLow,41,HomeInternetAccessRangeHigh,60,LSAD,County,CENSUSAREA,324.326000
id,0500000US13249,STATE,13,COUNTY,249,name,Schley,Active,0,Inactive,1,Emeritus,0,Shorthand_FIPS,249,region,13249,householdsHalfMileofPublicTransport,0,pctHouseholdsHalfMileofPublicTransport,0,HomeInternetAccessRange,1-20,PctHouseholdsNOvehicle,11.3,PctPopNONEnglishHome,7.5,pctPopLEQpovertylevel,22.2,HomeInternetAccessRangeLow,1,HomeInternetAccessRangeHigh,20,LSAD,County,CENSUSAREA,166.906000
id,0500000US13251,STATE,13,COUNTY,251,name,Screven,Active,7,Inactive,0,Emeritus,0,Shorthand_FIPS,251,region,13251,householdsHalfMileofPublicTransport,0,pctHouseholdsHalfMileofPublicTransport,0,HomeInternetAccessRange,41-60,PctHouseholdsNOvehicle,10.4,PctPopNONEnglishHome,2.3,pctPopLEQpovertylevel,25,HomeInternetAccessRangeLow,41,HomeInternetAccessRangeHigh,60,LSAD,County,CENSUSAREA,645.101000
id,0500000US13267,STATE,13,COUNTY,267,name,Tattnall,Active,6,Inactive,0,Emeritus,1,Shorthand_FIPS,267,region,13267,householdsHalfMileofPublicTransport,0,pctHouseholdsHalfMileofPublicTransport,0,HomeInternetAccessRange,1-20,PctHouseholdsNOvehicle,10.3,PctPopNONEnglishHome,10.5,pctPopLEQpovertylevel,29.3,HomeInternetAccessRangeLow,1,HomeInternetAccessRangeHigh,20,LSAD,County,CENSUSAREA,479.403000
id,0500000US13269,STATE,13,COUNTY,269,name,Taylor,Active,4,Inactive,0,Emeritus,0,Shorthand_FIPS,269,region,13269,householdsHalfMileofPublicTransport,0,pctHouseholdsHalfMileofPublicTransport,0,HomeInternetAccessRange,1-20,PctHouseholdsNOvehicle,8,PctPopNONEnglishHome,2,pctPopLEQpovertylevel,27.4,HomeInternetAccessRangeLow,1,HomeInternetAccessRangeHigh,20,LSAD,County,CENSUSAREA,376.686000
id,0500000US13271,STATE,13,COUNTY,271,name,Telfair,Active,6,Inactive,0,Emeritus,1,Shorthand_FIPS,271,region,13271,householdsHalfMileofPublicTransport,0,pctHouseholdsHalfMileofPublicTransport,0,HomeInternetAccessRange,1-20,PctHouseholdsNOvehicle,10.7,PctPopNONEnglishHome,13.6,pctPopLEQpovertylevel,27.5,HomeInternetAccessRangeLow,1,HomeInternetAccessRangeHigh,20,LSAD,County,CENSUSAREA,437.303000
id,0500000US13285,STATE,13,COUNTY,285,name,Troup,Active,78,Inactive,6,Emeritus,4,Shorthand_FIPS,285,region,13285,householdsHalfMileofPublicTransport,0,pctHouseholdsHalfMileofPublicTransport,0,HomeInternetAccessRange,41-60,PctHouseholdsNOvehicle,10.7,PctPopNONEnglishHome,5.3,pctPopLEQpovertylevel,21.9,HomeInternetAccessRangeLow,41,HomeInternetAccessRangeHigh,60,LSAD,County,CENSUSAREA,413.988000
id,0500000US13289,STATE,13,COUNTY,289,name,Twiggs,Active,3,Inactive,0,Emeritus,0,Shorthand_FIPS,289,region,13289,householdsHalfMileofPublicTransport,0,pctHouseholdsHalfMileofPublicTransport,0,HomeInternetAccessRange,1-20,PctHouseholdsNOvehicle,9.5,PctPopNONEnglishHome,0.6,pctPopLEQpovertylevel,29.7,HomeInternetAccessRangeLow,1,HomeInternetAccessRangeHigh,20,LSAD,County,CENSUSAREA,358.398000
id,0500000US13291,STATE,13,COUNTY,291,name,Union,Active,29,Inactive,7,Emeritus,2,Shorthand_FIPS,291,region,13291,householdsHalfMileofPublicTransport,0,pctHouseholdsHalfMileofPublicTransport,0,HomeInternetAccessRange,21-40,PctHouseholdsNOvehicle,6.4,PctPopNONEnglishHome,5.9,pctPopLEQpovertylevel,17.3,HomeInternetAccessRangeLow,21,HomeInternetAccessRangeHigh,40,LSAD,County,CENSUSAREA,321.926000
id,0500000US13301,STATE,13,COUNTY,301,name,Warren,Active,3,Inactive,1,Emeritus,0,Shorthand_FIPS,301,region,13301,householdsHalfMileofPublicTransport,0,pctHouseholdsHalfMileofPublicTransport,0,HomeInternetAccessRange,1-20,PctHouseholdsNOvehicle,12.8,PctPopNONEnglishHome,2,pctPopLEQpovertylevel,30.4,HomeInternetAccessRangeLow,1,HomeInternetAccessRangeHigh,20,LSAD,County,CENSUSAREA,284.298000
id,0500000US13303,STATE,13,COUNTY,303,name,Washington,Active,15,Inactive,2,Emeritus,1,Shorthand_FIPS,303,region,13303,householdsHalfMileofPublicTransport,0,pctHouseholdsHalfMileofPublicTransport,0,HomeInternetAccessRange,21-40,PctHouseholdsNOvehicle,10.8,PctPopNONEnglishHome,2.4,pctPopLEQpovertylevel,27.2,HomeInternetAccessRangeLow,21,HomeInternetAccessRangeHigh,40,LSAD,County,CENSUSAREA,678.452000
id,0500000US13305,STATE,13,COUNTY,305,name,Wayne,Active,28,Inactive,1,Emeritus,2,Shorthand_FIPS,305,region,13305,householdsHalfMileofPublicTransport,1143,pctHouseholdsHalfMileofPublicTransport,3.8,HomeInternetAccessRange,21-40,PctHouseholdsNOvehicle,9.2,PctPopNONEnglishHome,5.5,pctPopLEQpovertylevel,22.2,HomeInternetAccessRangeLow,21,HomeInternetAccessRangeHigh,40,LSAD,County,CENSUSAREA,641.777000
id,0500000US13309,STATE,13,COUNTY,309,name,Wheeler,Active,1,Inactive,0,Emeritus,0,Shorthand_FIPS,309,region,13309,householdsHalfMileofPublicTransport,0,pctHouseholdsHalfMileofPublicTransport,0,HomeInternetAccessRange,1-20,PctHouseholdsNOvehicle,7.9,PctPopNONEnglishHome,1.8,pctPopLEQpovertylevel,23.6,HomeInternetAccessRangeLow,1,HomeInternetAccessRangeHigh,20,LSAD,County,CENSUSAREA,295.484000
id,0500000US13313,STATE,13,COUNTY,313,name,Whitfield,Active,153,Inactive,7,Emeritus,3,Shorthand_FIPS,313,region,13313,householdsHalfMileofPublicTransport,0,pctHouseholdsHalfMileofPublicTransport,0,HomeInternetAccessRange,41-60,PctHouseholdsNOvehicle,6.1,PctPopNONEnglishHome,30.6,pctPopLEQpovertylevel,20.1,HomeInternetAccessRangeLow,41,HomeInternetAccessRangeHigh,60,LSAD,County,CENSUSAREA,290.464000
id,0500000US13317,STATE,13,COUNTY,317,name,Wilkes,Active,7,Inactive,1,Emeritus,2,Shorthand_FIPS,317,region,13317,householdsHalfMileofPublicTransport,0,pctHouseholdsHalfMileofPublicTransport,0,HomeInternetAccessRange,1-20,PctHouseholdsNOvehicle,10.3,PctPopNONEnglishHome,3.7,pctPopLEQpovertylevel,29.5,HomeInternetAccessRangeLow,1,HomeInternetAccessRangeHigh,20,LSAD,County,CENSUSAREA,469.490000
id,0500000US13319,STATE,13,COUNTY,319,name,Wilkinson,Active,5,Inactive,0,Emeritus,0,Shorthand_FIPS,319,region,13319,householdsHalfMileofPublicTransport,0,pctHouseholdsHalfMileofPublicTransport,0,HomeInternetAccessRange,1-20,PctHouseholdsNOvehicle,6.4,PctPopNONEnglishHome,2.1,pctPopLEQpovertylevel,19.9,HomeInternetAccessRangeLow,1,HomeInternetAccessRangeHigh,20,LSAD,County,CENSUSAREA,447.308000
id,0500000US13003,STATE,13,COUNTY,003,name,Atkinson,Active,3,Inactive,0,Emeritus,0,Shorthand_FIPS,3,region,13003,householdsHalfMileofPublicTransport,0,pctHouseholdsHalfMileofPublicTransport,0,HomeInternetAccessRange,1-20,PctHouseholdsNOvehicle,9.5,PctPopNONEnglishHome,21.4,pctPopLEQpovertylevel,29.9,HomeInternetAccessRangeLow,1,HomeInternetAccessRangeHigh,20,LSAD,County,CENSUSAREA,339.382000
id,0500000US13005,STATE,13,COUNTY,005,name,Bacon,Active,7,Inactive,1,Emeritus,0,Shorthand_FIPS,5,region,13005,householdsHalfMileofPublicTransport,0,pctHouseholdsHalfMileofPublicTransport,0,HomeInternetAccessRange,1-20,PctHouseholdsNOvehicle,6.6,PctPopNONEnglishHome,9.6,pctPopLEQpovertylevel,20.4,HomeInternetAccessRangeLow,1,HomeInternetAccessRangeHigh,20,LSAD,County,CENSUSAREA,258.576000
id,0500000US13011,STATE,13,COUNTY,011,name,Banks,Active,7,Inactive,2,Emeritus,0,Shorthand_FIPS,11,region,13011,householdsHalfMileofPublicTransport,0,pctHouseholdsHalfMileofPublicTransport,0,HomeInternetAccessRange,1-20,PctHouseholdsNOvehicle,4.9,PctPopNONEnglishHome,5.4,pctPopLEQpovertylevel,16.3,HomeInternetAccessRangeLow,1,HomeInternetAccessRangeHigh,20,LSAD,County,CENSUSAREA,232.091000
id,0500000US13017,STATE,13,COUNTY,017,name,BenHill,Active,12,Inactive,1,Emeritus,0,Shorthand_FIPS,17,region,13017,householdsHalfMileofPublicTransport,0,pctHouseholdsHalfMileofPublicTransport,0,HomeInternetAccessRange,21-40,PctHouseholdsNOvehicle,14.4,PctPopNONEnglishHome,4.5,pctPopLEQpovertylevel,36.2,HomeInternetAccessRangeLow,21,HomeInternetAccessRangeHigh,40,LSAD,County,CENSUSAREA,250.121000
id,0500000US13023,STATE,13,COUNTY,023,name,Bleckley,Active,12,Inactive,1,Emeritus,1,Shorthand_FIPS,23,region,13023,householdsHalfMileofPublicTransport,0,pctHouseholdsHalfMileofPublicTransport,0,HomeInternetAccessRange,21-40,PctHouseholdsNOvehicle,6.1,PctPopNONEnglishHome,2,pctPopLEQpovertylevel,25.9,HomeInternetAccessRangeLow,21,HomeInternetAccessRangeHigh,40,LSAD,County,CENSUSAREA,215.870000
id,0500000US13031,STATE,13,COUNTY,031,name,Bulloch,Active,94,Inactive,6,Emeritus,5,Shorthand_FIPS,31,region,13031,householdsHalfMileofPublicTransport,0,pctHouseholdsHalfMileofPublicTransport,0,HomeInternetAccessRange,21-40,PctHouseholdsNOvehicle,6.1,PctPopNONEnglishHome,5.2,pctPopLEQpovertylevel,33.1,HomeInternetAccessRangeLow,21,HomeInternetAccessRangeHigh,40,LSAD,County,CENSUSAREA,672.809000
id,0500000US13035,STATE,13,COUNTY,035,name,Butts,Active,23,Inactive,3,Emeritus,1,Shorthand_FIPS,35,region,13035,householdsHalfMileofPublicTransport,0,pctHouseholdsHalfMileofPublicTransport,0,HomeInternetAccessRange,21-40,PctHouseholdsNOvehicle,4.1,PctPopNONEnglishHome,2.8,pctPopLEQpovertylevel,17.8,HomeInternetAccessRangeLow,21,HomeInternetAccessRangeHigh,40,LSAD,County,CENSUSAREA,184.393000
id,0500000US13037,STATE,13,COUNTY,037,name,Calhoun,Active,2,Inactive,0,Emeritus,1,Shorthand_FIPS,37,region,13037,householdsHalfMileofPublicTransport,0,pctHouseholdsHalfMileofPublicTransport,0,HomeInternetAccessRange,1-20,PctHouseholdsNOvehicle,14.8,PctPopNONEnglishHome,7.6,pctPopLEQpovertylevel,40.3,HomeInternetAccessRangeLow,1,HomeInternetAccessRangeHigh,20,LSAD,County,CENSUSAREA,280.367000
id,0500000US13043,STATE,13,COUNTY,043,name,Candler,Active,10,Inactive,0,Emeritus,1,Shorthand_FIPS,43,region,13043,householdsHalfMileofPublicTransport,0,pctHouseholdsHalfMileofPublicTransport,0,HomeInternetAccessRange,41-60,PctHouseholdsNOvehicle,9,PctPopNONEnglishHome,9.5,pctPopLEQpovertylevel,29,HomeInternetAccessRangeLow,41,HomeInternetAccessRangeHigh,60,LSAD,County,CENSUSAREA,243.044000
id,0500000US13045,STATE,13,COUNTY,045,name,Carroll,Active,151,Inactive,13,Emeritus,9,Shorthand_FIPS,45,region,13045,householdsHalfMileofPublicTransport,0,pctHouseholdsHalfMileofPublicTransport,0,HomeInternetAccessRange,41-60,PctHouseholdsNOvehicle,5.6,PctPopNONEnglishHome,7.3,pctPopLEQpovertylevel,19.9,HomeInternetAccessRangeLow,41,HomeInternetAccessRangeHigh,60,LSAD,County,CENSUSAREA,499.076000
id,0500000US13047,STATE,13,COUNTY,047,name,Catoosa,Active,37,Inactive,3,Emeritus,0,Shorthand_FIPS,47,region,13047,householdsHalfMileofPublicTransport,0,pctHouseholdsHalfMileofPublicTransport,0,HomeInternetAccessRange,61-81,PctHouseholdsNOvehicle,4,PctPopNONEnglishHome,3.7,pctPopLEQpovertylevel,13.1,HomeInternetAccessRangeLow,61,HomeInternetAccessRangeHigh,81,LSAD,County,CENSUSAREA,162.159000
id,0500000US13053,STATE,13,COUNTY,053,name,Chattahoochee,Active,4,Inactive,0,Emeritus,1,Shorthand_FIPS,53,region,13053,householdsHalfMileofPublicTransport,0,pctHouseholdsHalfMileofPublicTransport,0,HomeInternetAccessRange,41-60,PctHouseholdsNOvehicle,3.6,PctPopNONEnglishHome,15,pctPopLEQpovertylevel,9,HomeInternetAccessRangeLow,41,HomeInternetAccessRangeHigh,60,LSAD,County,CENSUSAREA,248.736000
id,0500000US13055,STATE,13,COUNTY,055,name,Chattooga,Active,28,Inactive,0,Emeritus,0,Shorthand_FIPS,55,region,13055,householdsHalfMileofPublicTransport,0,pctHouseholdsHalfMileofPublicTransport,0,HomeInternetAccessRange,21-40,PctHouseholdsNOvehicle,6.5,PctPopNONEnglishHome,4.7,pctPopLEQpovertylevel,23.9,HomeInternetAccessRangeLow,21,HomeInternetAccessRangeHigh,40,LSAD,County,CENSUSAREA,313.338000
id,0500000US13077,STATE,13,COUNTY,077,name,Coweta,Active,155,Inactive,21,Emeritus,10,Shorthand_FIPS,77,region,13077,householdsHalfMileofPublicTransport,2020,pctHouseholdsHalfMileofPublicTransport,1.5,HomeInternetAccessRange,61-81,PctHouseholdsNOvehicle,3.7,PctPopNONEnglishHome,9,pctPopLEQpovertylevel,13,HomeInternetAccessRangeLow,61,HomeInternetAccessRangeHigh,81,LSAD,County,CENSUSAREA,440.892000
id,0500000US13083,STATE,13,COUNTY,083,name,Dade,Active,8,Inactive,1,Emeritus,1,Shorthand_FIPS,83,region,13083,householdsHalfMileofPublicTransport,0,pctHouseholdsHalfMileofPublicTransport,0,HomeInternetAccessRange,21-40,PctHouseholdsNOvehicle,4.4,PctPopNONEnglishHome,2.7,pctPopLEQpovertylevel,13.7,HomeInternetAccessRangeLow,21,HomeInternetAccessRangeHigh,40,LSAD,County,CENSUSAREA,173.981000
id,0500000US13085,STATE,13,COUNTY,085,name,Dawson,Active,28,Inactive,3,Emeritus,3,Shorthand_FIPS,85,region,13085,householdsHalfMileofPublicTransport,0,pctHouseholdsHalfMileofPublicTransport,0,HomeInternetAccessRange,1-20,PctHouseholdsNOvehicle,2.5,PctPopNONEnglishHome,4.2,pctPopLEQpovertylevel,15.8,HomeInternetAccessRangeLow,1,HomeInternetAccessRangeHigh,20,LSAD,County,CENSUSAREA,210.830000
id,0500000US13087,STATE,13,COUNTY,087,name,Decatur,Active,27,Inactive,0,Emeritus,3,Shorthand_FIPS,87,region,13087,householdsHalfMileofPublicTransport,0,pctHouseholdsHalfMileofPublicTransport,0,HomeInternetAccessRange,21-40,PctHouseholdsNOvehicle,10.7,PctPopNONEnglishHome,3.8,pctPopLEQpovertylevel,29.6,HomeInternetAccessRangeLow,21,HomeInternetAccessRangeHigh,40,LSAD,County,CENSUSAREA,597.140000
id,0500000US13091,STATE,13,COUNTY,091,name,Dodge,Active,20,Inactive,1,Emeritus,0,Shorthand_FIPS,91,region,13091,householdsHalfMileofPublicTransport,0,pctHouseholdsHalfMileofPublicTransport,0,HomeInternetAccessRange,1-20,PctHouseholdsNOvehicle,9.8,PctPopNONEnglishHome,3.8,pctPopLEQpovertylevel,19.6,HomeInternetAccessRangeLow,1,HomeInternetAccessRangeHigh,20,LSAD,County,CENSUSAREA,495.890000
id,0500000US13093,STATE,13,COUNTY,093,name,Dooly,Active,7,Inactive,0,Emeritus,0,Shorthand_FIPS,93,region,13093,householdsHalfMileofPublicTransport,0,pctHouseholdsHalfMileofPublicTransport,0,HomeInternetAccessRange,1-20,PctHouseholdsNOvehicle,8.4,PctPopNONEnglishHome,5.5,pctPopLEQpovertylevel,27.9,HomeInternetAccessRangeLow,1,HomeInternetAccessRangeHigh,20,LSAD,County,CENSUSAREA,391.940000
id,0500000US13095,STATE,13,COUNTY,095,name,Dougherty,Active,237,Inactive,17,Emeritus,8,Shorthand_FIPS,95,region,13095,householdsHalfMileofPublicTransport,56152,pctHouseholdsHalfMileofPublicTransport,59.8,HomeInternetAccessRange,21-40,PctHouseholdsNOvehicle,12.9,PctPopNONEnglishHome,3.4,pctPopLEQpovertylevel,32.4,HomeInternetAccessRangeLow,21,HomeInternetAccessRangeHigh,40,LSAD,County,CENSUSAREA,328.689000
id,0500000US13097,STATE,13,COUNTY,097,name,Douglas,Active,190,Inactive,9,Emeritus,9,Shorthand_FIPS,97,region,13097,householdsHalfMileofPublicTransport,0,pctHouseholdsHalfMileofPublicTransport,0,HomeInternetAccessRange,61-81,PctHouseholdsNOvehicle,4.1,PctPopNONEnglishHome,11.9,pctPopLEQpovertylevel,16.2,HomeInternetAccessRangeLow,61,HomeInternetAccessRangeHigh,81,LSAD,County,CENSUSAREA,200.067000
id,0500000US13099,STATE,13,COUNTY,099,name,Early,Active,10,Inactive,1,Emeritus,1,Shorthand_FIPS,99,region,13099,householdsHalfMileofPublicTransport,0,pctHouseholdsHalfMileofPublicTransport,0,HomeInternetAccessRange,1-20,PctHouseholdsNOvehicle,13,PctPopNONEnglishHome,1.4,pctPopLEQpovertylevel,27.3,HomeInternetAccessRangeLow,1,HomeInternetAccessRangeHigh,20,LSAD,County,CENSUSAREA,512.594000
id,0500000US13101,STATE,13,COUNTY,101,name,Echols,Active,0,Inactive,0,Emeritus,0,Shorthand_FIPS,101,region,13101,householdsHalfMileofPublicTransport,0,pctHouseholdsHalfMileofPublicTransport,0,HomeInternetAccessRange,1-20,PctHouseholdsNOvehicle,4.7,PctPopNONEnglishHome,25.9,pctPopLEQpovertylevel,30.1,HomeInternetAccessRangeLow,1,HomeInternetAccessRangeHigh,20,LSAD,County,CENSUSAREA,414.894000
id,0500000US13109,STATE,13,COUNTY,109,name,Evans,Active,10,Inactive,0,Emeritus,0,Shorthand_FIPS,109,region,13109,householdsHalfMileofPublicTransport,0,pctHouseholdsHalfMileofPublicTransport,0,HomeInternetAccessRange,1-20,PctHouseholdsNOvehicle,7.6,PctPopNONEnglishHome,12.5,pctPopLEQpovertylevel,27,HomeInternetAccessRangeLow,1,HomeInternetAccessRangeHigh,20,LSAD,County,CENSUSAREA,182.853000
id,0500000US13111,STATE,13,COUNTY,111,name,Fannin,Active,41,Inactive,7,Emeritus,7,Shorthand_FIPS,111,region,13111,householdsHalfMileofPublicTransport,0,pctHouseholdsHalfMileofPublicTransport,0,HomeInternetAccessRange,21-40,PctHouseholdsNOvehicle,5.3,PctPopNONEnglishHome,380,pctPopLEQpovertylevel,22.6,HomeInternetAccessRangeLow,21,HomeInternetAccessRangeHigh,40,LSAD,County,CENSUSAREA,386.723000
id,0500000US13115,STATE,13,COUNTY,115,name,Floyd,Active,186,Inactive,8,Emeritus,7,Shorthand_FIPS,115,region,13115,householdsHalfMileofPublicTransport,0,pctHouseholdsHalfMileofPublicTransport,0,HomeInternetAccessRange,41-60,PctHouseholdsNOvehicle,8.3,PctPopNONEnglishHome,10,pctPopLEQpovertylevel,21.4,HomeInternetAccessRangeLow,41,HomeInternetAccessRangeHigh,60,LSAD,County,CENSUSAREA,509.911000
id,0500000US13117,STATE,13,COUNTY,117,name,Forsyth,Active,345,Inactive,54,Emeritus,12,Shorthand_FIPS,117,region,13117,householdsHalfMileofPublicTransport,4389,pctHouseholdsHalfMileofPublicTransport,2.3,HomeInternetAccessRange,>80,PctHouseholdsNOvehicle,2.5,PctPopNONEnglishHome,18.2,pctPopLEQpovertylevel,7.1,HomeInternetAccessRangeLow,80,HomeInternetAccessRangeHigh,100,LSAD,County,CENSUSAREA,224.021000
id,0500000US13119,STATE,13,COUNTY,119,name,Franklin,Active,29,Inactive,3,Emeritus,0,Shorthand_FIPS,119,region,13119,householdsHalfMileofPublicTransport,0,pctHouseholdsHalfMileofPublicTransport,0,HomeInternetAccessRange,1-20,PctHouseholdsNOvehicle,8.3,PctPopNONEnglishHome,4.8,pctPopLEQpovertylevel,20.8,HomeInternetAccessRangeLow,1,HomeInternetAccessRangeHigh,20,LSAD,County,CENSUSAREA,261.497000
id,0500000US13067,STATE,13,COUNTY,067,name,Cobb,Active,2945,Inactive,308,Emeritus,91,Shorthand_FIPS,67,region,13067,householdsHalfMileofPublicTransport,17619,pctHouseholdsHalfMileofPublicTransport,2.5,HomeInternetAccessRange,61-80,PctHouseholdsNOvehicle,4.1,PctPopNONEnglishHome,20.5,pctPopLEQpovertylevel,13,HomeInternetAccessRangeLow,61,HomeInternetAccessRangeHigh,80,LSAD,County,CENSUSAREA,339.549000
id,0500000US13069,STATE,13,COUNTY,069,name,Coffee,Active,41,Inactive,1,Emeritus,3,Shorthand_FIPS,69,region,13069,householdsHalfMileofPublicTransport,0,pctHouseholdsHalfMileofPublicTransport,0,HomeInternetAccessRange,1-20,PctHouseholdsNOvehicle,9,PctPopNONEnglishHome,9.7,pctPopLEQpovertylevel,26,HomeInternetAccessRangeLow,1,HomeInternetAccessRangeHigh,20,LSAD,County,CENSUSAREA,575.097000
id,0500000US13071,STATE,13,COUNTY,071,name,Colquitt,Active,45,Inactive,3,Emeritus,1,Shorthand_FIPS,71,region,13071,householdsHalfMileofPublicTransport,0,pctHouseholdsHalfMileofPublicTransport,0,HomeInternetAccessRange,1-20,PctHouseholdsNOvehicle,10.8,PctPopNONEnglishHome,16.9,pctPopLEQpovertylevel,27.7,HomeInternetAccessRangeLow,1,HomeInternetAccessRangeHigh,20,LSAD,County,CENSUSAREA,544.153000
id,0500000US13073,STATE,13,COUNTY,073,name,Columbia,Active,134,Inactive,16,Emeritus,7,Shorthand_FIPS,73,region,13073,householdsHalfMileofPublicTransport,2409,pctHouseholdsHalfMileofPublicTransport,1.8,HomeInternetAccessRange,61-81,PctHouseholdsNOvehicle,2.6,PctPopNONEnglishHome,9.6,pctPopLEQpovertylevel,9.6,HomeInternetAccessRangeLow,61,HomeInternetAccessRangeHigh,81,LSAD,County,CENSUSAREA,290.090000
id,0500000US13139,STATE,13,COUNTY,139,name,Hall,Active,344,Inactive,32,Emeritus,18,Shorthand_FIPS,139,region,13139,householdsHalfMileofPublicTransport,37417,pctHouseholdsHalfMileofPublicTransport,20.2,HomeInternetAccessRange,41-60,PctHouseholdsNOvehicle,5.9,PctPopNONEnglishHome,27,pctPopLEQpovertylevel,18.8,HomeInternetAccessRangeLow,41,HomeInternetAccessRangeHigh,60,LSAD,County,CENSUSAREA,392.782000
id,0500000US13143,STATE,13,COUNTY,143,name,Haralson,Active,23,Inactive,1,Emeritus,2,Shorthand_FIPS,143,region,13143,householdsHalfMileofPublicTransport,0,pctHouseholdsHalfMileofPublicTransport,0,HomeInternetAccessRange,21-40,PctHouseholdsNOvehicle,5.5,PctPopNONEnglishHome,2.1,pctPopLEQpovertylevel,20.9,HomeInternetAccessRangeLow,21,HomeInternetAccessRangeHigh,40,LSAD,County,CENSUSAREA,282.165000
id,0500000US13145,STATE,13,COUNTY,145,name,Harris,Active,18,Inactive,6,Emeritus,2,Shorthand_FIPS,145,region,13145,householdsHalfMileofPublicTransport,0,pctHouseholdsHalfMileofPublicTransport,0,HomeInternetAccessRange,41-60,PctHouseholdsNOvehicle,2.8,PctPopNONEnglishHome,3.9,pctPopLEQpovertylevel,8.7,HomeInternetAccessRangeLow,41,HomeInternetAccessRangeHigh,60,LSAD,County,CENSUSAREA,463.869000
id,0500000US13147,STATE,13,COUNTY,147,name,Hart,Active,20,Inactive,2,Emeritus,2,Shorthand_FIPS,147,region,13147,householdsHalfMileofPublicTransport,0,pctHouseholdsHalfMileofPublicTransport,0,HomeInternetAccessRange,1-20,PctHouseholdsNOvehicle,5.2,PctPopNONEnglishHome,3.1,pctPopLEQpovertylevel,24.6,HomeInternetAccessRangeLow,1,HomeInternetAccessRangeHigh,20,LSAD,County,CENSUSAREA,232.394000
id,0500000US13153,STATE,13,COUNTY,153,name,Houston,Active,175,Inactive,9,Emeritus,8,Shorthand_FIPS,153,region,13153,householdsHalfMileofPublicTransport,0,pctHouseholdsHalfMileofPublicTransport,0,HomeInternetAccessRange,41-60,PctHouseholdsNOvehicle,3.9,PctPopNONEnglishHome,8.7,pctPopLEQpovertylevel,16.6,HomeInternetAccessRangeLow,41,HomeInternetAccessRangeHigh,60,LSAD,County,CENSUSAREA,375.541000
id,0500000US13155,STATE,13,COUNTY,155,name,Irwin,Active,8,Inactive,0,Emeritus,0,Shorthand_FIPS,155,region,13155,householdsHalfMileofPublicTransport,0,pctHouseholdsHalfMileofPublicTransport,0,HomeInternetAccessRange,1-20,PctHouseholdsNOvehicle,5.2,PctPopNONEnglishHome,1.2,pctPopLEQpovertylevel,22.3,HomeInternetAccessRangeLow,1,HomeInternetAccessRangeHigh,20,LSAD,County,CENSUSAREA,354.343000
id,0500000US13157,STATE,13,COUNTY,157,name,Jackson,Active,51,Inactive,9,Emeritus,6,Shorthand_FIPS,157,region,13157,householdsHalfMileofPublicTransport,0,pctHouseholdsHalfMileofPublicTransport,0,HomeInternetAccessRange,1-20,PctHouseholdsNOvehicle,4.5,PctPopNONEnglishHome,8,pctPopLEQpovertylevel,15,HomeInternetAccessRangeLow,1,HomeInternetAccessRangeHigh,20,LSAD,County,CENSUSAREA,339.663000
id,0500000US13159,STATE,13,COUNTY,159,name,Jasper,Active,10,Inactive,0,Emeritus,0,Shorthand_FIPS,159,region,13159,householdsHalfMileofPublicTransport,0,pctHouseholdsHalfMileofPublicTransport,0,HomeInternetAccessRange,21-40,PctHouseholdsNOvehicle,4.1,PctPopNONEnglishHome,4.8,pctPopLEQpovertylevel,22.1,HomeInternetAccessRangeLow,21,HomeInternetAccessRangeHigh,40,LSAD,County,CENSUSAREA,368.165000
id,0500000US13161,STATE,13,COUNTY,161,name,JeffDavis,Active,9,Inactive,0,Emeritus,0,Shorthand_FIPS,161,region,13161,householdsHalfMileofPublicTransport,0,pctHouseholdsHalfMileofPublicTransport,0,HomeInternetAccessRange,21-40,PctHouseholdsNOvehicle,8.2,PctPopNONEnglishHome,10.4,pctPopLEQpovertylevel,24.5,HomeInternetAccessRangeLow,21,HomeInternetAccessRangeHigh,40,LSAD,County,CENSUSAREA,330.740000
id,0500000US13165,STATE,13,COUNTY,165,name,Jenkins,Active,5,Inactive,0,Emeritus,0,Shorthand_FIPS,165,region,13165,householdsHalfMileofPublicTransport,0,pctHouseholdsHalfMileofPublicTransport,0,HomeInternetAccessRange,21-40,PctHouseholdsNOvehicle,7.6,PctPopNONEnglishHome,4.6,pctPopLEQpovertylevel,29.8,HomeInternetAccessRangeLow,21,HomeInternetAccessRangeHigh,40,LSAD,County,CENSUSAREA,347.279000
id,0500000US13167,STATE,13,COUNTY,167,name,Johnson,Active,2,Inactive,0,Emeritus,0,Shorthand_FIPS,167,region,13167,householdsHalfMileofPublicTransport,0,pctHouseholdsHalfMileofPublicTransport,0,HomeInternetAccessRange,21-40,PctHouseholdsNOvehicle,10.3,PctPopNONEnglishHome,1.3,pctPopLEQpovertylevel,22.3,HomeInternetAccessRangeLow,21,HomeInternetAccessRangeHigh,40,LSAD,County,CENSUSAREA,303.010000
id,0500000US13169,STATE,13,COUNTY,169,name,Jones,Active,19,Inactive,7,Emeritus,0,Shorthand_FIPS,169,region,13169,householdsHalfMileofPublicTransport,305,pctHouseholdsHalfMileofPublicTransport,1.1,HomeInternetAccessRange,21-40,PctHouseholdsNOvehicle,4.1,PctPopNONEnglishHome,2.4,pctPopLEQpovertylevel,15.5,HomeInternetAccessRangeLow,21,HomeInternetAccessRangeHigh,40,LSAD,County,CENSUSAREA,393.933000
id,0500000US13173,STATE,13,COUNTY,173,name,Lanier,Active,3,Inactive,0,Emeritus,0,Shorthand_FIPS,173,region,13173,householdsHalfMileofPublicTransport,0,pctHouseholdsHalfMileofPublicTransport,0,HomeInternetAccessRange,1-20,PctHouseholdsNOvehicle,8.1,PctPopNONEnglishHome,3.5,pctPopLEQpovertylevel,30.6,HomeInternetAccessRangeLow,1,HomeInternetAccessRangeHigh,20,LSAD,County,CENSUSAREA,185.261000
id,0500000US13175,STATE,13,COUNTY,175,name,Laurens,Active,71,Inactive,4,Emeritus,2,Shorthand_FIPS,175,region,13175,householdsHalfMileofPublicTransport,0,pctHouseholdsHalfMileofPublicTransport,0,HomeInternetAccessRange,21-40,PctHouseholdsNOvehicle,8,PctPopNONEnglishHome,3,pctPopLEQpovertylevel,25.7,HomeInternetAccessRangeLow,21,HomeInternetAccessRangeHigh,40,LSAD,County,CENSUSAREA,807.296000
id,0500000US13177,STATE,13,COUNTY,177,name,Lee,Active,7,Inactive,3,Emeritus,1,Shorthand_FIPS,177,region,13177,householdsHalfMileofPublicTransport,68,pctHouseholdsHalfMileofPublicTransport,0.2,HomeInternetAccessRange,41-60,PctHouseholdsNOvehicle,3.4,PctPopNONEnglishHome,5.3,pctPopLEQpovertylevel,11.9,HomeInternetAccessRangeLow,41,HomeInternetAccessRangeHigh,60,LSAD,County,CENSUSAREA,355.784000
id,0500000US13181,STATE,13,COUNTY,181,name,Lincoln,Active,1,Inactive,0,Emeritus,1,Shorthand_FIPS,181,region,13181,householdsHalfMileofPublicTransport,0,pctHouseholdsHalfMileofPublicTransport,0,HomeInternetAccessRange,1-20,PctHouseholdsNOvehicle,8.7,PctPopNONEnglishHome,1.3,pctPopLEQpovertylevel,24.3,HomeInternetAccessRangeLow,1,HomeInternetAccessRangeHigh,20,LSAD,County,CENSUSAREA,210.380000
id,0500000US13123,STATE,13,COUNTY,123,name,Gilmer,Active,32,Inactive,7,Emeritus,4,Shorthand_FIPS,123,region,13123,householdsHalfMileofPublicTransport,0,pctHouseholdsHalfMileofPublicTransport,0,HomeInternetAccessRange,61-81,PctHouseholdsNOvehicle,5.5,PctPopNONEnglishHome,8.9,pctPopLEQpovertylevel,21.4,HomeInternetAccessRangeLow,61,HomeInternetAccessRangeHigh,81,LSAD,County,CENSUSAREA,426.540000
id,0500000US13125,STATE,13,COUNTY,125,name,Glascock,Active,1,Inactive,0,Emeritus,0,Shorthand_FIPS,125,region,13125,householdsHalfMileofPublicTransport,0,pctHouseholdsHalfMileofPublicTransport,0,HomeInternetAccessRange,1-20,PctHouseholdsNOvehicle,3.2,PctPopNONEnglishHome,0.9,pctPopLEQpovertylevel,16.6,HomeInternetAccessRangeLow,1,HomeInternetAccessRangeHigh,20,LSAD,County,CENSUSAREA,143.740000
id,0500000US13129,STATE,13,COUNTY,129,name,Gordon,Active,43,Inactive,3,Emeritus,3,Shorthand_FIPS,129,region,13129,householdsHalfMileofPublicTransport,0,pctHouseholdsHalfMileofPublicTransport,0,HomeInternetAccessRange,41-60,PctHouseholdsNOvehicle,5.1,PctPopNONEnglishHome,15.4,pctPopLEQpovertylevel,20.4,HomeInternetAccessRangeLow,41,HomeInternetAccessRangeHigh,60,LSAD,County,CENSUSAREA,355.808000
id,0500000US13133,STATE,13,COUNTY,133,name,Greene,Active,27,Inactive,1,Emeritus,6,Shorthand_FIPS,133,region,13133,householdsHalfMileofPublicTransport,0,pctHouseholdsHalfMileofPublicTransport,0,HomeInternetAccessRange,1-20,PctHouseholdsNOvehicle,7.6,PctPopNONEnglishHome,4.9,pctPopLEQpovertylevel,26,HomeInternetAccessRangeLow,1,HomeInternetAccessRangeHigh,20,LSAD,County,CENSUSAREA,387.435000
id,0500000US13187,STATE,13,COUNTY,187,name,Lumpkin,Active,40,Inactive,7,Emeritus,4,Shorthand_FIPS,187,region,13187,householdsHalfMileofPublicTransport,0,pctHouseholdsHalfMileofPublicTransport,0,HomeInternetAccessRange,1-20,PctHouseholdsNOvehicle,3.7,PctPopNONEnglishHome,4.7,pctPopLEQpovertylevel,20.1,HomeInternetAccessRangeLow,1,HomeInternetAccessRangeHigh,20,LSAD,County,CENSUSAREA,282.933000
id,0500000US13193,STATE,13,COUNTY,193,name,Macon,Active,3,Inactive,0,Emeritus,0,Shorthand_FIPS,193,region,13193,householdsHalfMileofPublicTransport,0,pctHouseholdsHalfMileofPublicTransport,0,HomeInternetAccessRange,1-20,PctHouseholdsNOvehicle,14,PctPopNONEnglishHome,5.7,pctPopLEQpovertylevel,29.6,HomeInternetAccessRangeLow,1,HomeInternetAccessRangeHigh,20,LSAD,County,CENSUSAREA,400.641000
id,0500000US13197,STATE,13,COUNTY,197,name,Marion,Active,2,Inactive,0,Emeritus,0,Shorthand_FIPS,197,region,13197,householdsHalfMileofPublicTransport,0,pctHouseholdsHalfMileofPublicTransport,0,HomeInternetAccessRange,1-20,PctHouseholdsNOvehicle,9.9,PctPopNONEnglishHome,9.8,pctPopLEQpovertylevel,18.6,HomeInternetAccessRangeLow,1,HomeInternetAccessRangeHigh,20,LSAD,County,CENSUSAREA,366.003000
id,0500000US13199,STATE,13,COUNTY,199,name,Meriwether,Active,16,Inactive,2,Emeritus,3,Shorthand_FIPS,199,region,13199,householdsHalfMileofPublicTransport,0,pctHouseholdsHalfMileofPublicTransport,0,HomeInternetAccessRange,21-40,PctHouseholdsNOvehicle,9.9,PctPopNONEnglishHome,2.8,pctPopLEQpovertylevel,22.9,HomeInternetAccessRangeLow,21,HomeInternetAccessRangeHigh,40,LSAD,County,CENSUSAREA,501.223000
id,0500000US13205,STATE,13,COUNTY,205,name,Mitchell,Active,13,Inactive,1,Emeritus,1,Shorthand_FIPS,205,region,13205,householdsHalfMileofPublicTransport,0,pctHouseholdsHalfMileofPublicTransport,0,HomeInternetAccessRange,21-40,PctHouseholdsNOvehicle,12.8,PctPopNONEnglishHome,3.8,pctPopLEQpovertylevel,30.4,HomeInternetAccessRangeLow,21,HomeInternetAccessRangeHigh,40,LSAD,County,CENSUSAREA,512.085000
id,0500000US13225,STATE,13,COUNTY,225,name,Peach,Active,24,Inactive,1,Emeritus,3,Shorthand_FIPS,225,region,13225,householdsHalfMileofPublicTransport,0,pctHouseholdsHalfMileofPublicTransport,0,HomeInternetAccessRange,21-40,PctHouseholdsNOvehicle,8,PctPopNONEnglishHome,10.2,pctPopLEQpovertylevel,22.7,HomeInternetAccessRangeLow,21,HomeInternetAccessRangeHigh,40,LSAD,County,CENSUSAREA,150.267000
id,0500000US13227,STATE,13,COUNTY,227,name,Pickens,Active,46,Inactive,8,Emeritus,10,Shorthand_FIPS,227,region,13227,householdsHalfMileofPublicTransport,0,pctHouseholdsHalfMileofPublicTransport,0,HomeInternetAccessRange,41-60,PctHouseholdsNOvehicle,3.7,PctPopNONEnglishHome,3.7,pctPopLEQpovertylevel,12,HomeInternetAccessRangeLow,41,HomeInternetAccessRangeHigh,60,LSAD,County,CENSUSAREA,232.057000
id,0500000US13231,STATE,13,COUNTY,231,name,Pike,Active,21,Inactive,5,Emeritus,1,Shorthand_FIPS,231,region,13231,householdsHalfMileofPublicTransport,0,pctHouseholdsHalfMileofPublicTransport,0,HomeInternetAccessRange,1-20,PctHouseholdsNOvehicle,3.4,PctPopNONEnglishHome,2,pctPopLEQpovertylevel,12.5,HomeInternetAccessRangeLow,1,HomeInternetAccessRangeHigh,20,LSAD,County,CENSUSAREA,216.086000
id,0500000US13233,STATE,13,COUNTY,233,name,Polk,Active,30,Inactive,3,Emeritus,4,Shorthand_FIPS,233,region,13233,householdsHalfMileofPublicTransport,0,pctHouseholdsHalfMileofPublicTransport,0,HomeInternetAccessRange,41-60,PctHouseholdsNOvehicle,6.8,PctPopNONEnglishHome,13.8,pctPopLEQpovertylevel,20.5,HomeInternetAccessRangeLow,41,HomeInternetAccessRangeHigh,60,LSAD,County,CENSUSAREA,310.331000
id,0500000US13235,STATE,13,COUNTY,235,name,Pulaski,Active,7,Inactive,2,Emeritus,2,Shorthand_FIPS,235,region,13235,householdsHalfMileofPublicTransport,0,pctHouseholdsHalfMileofPublicTransport,0,HomeInternetAccessRange,1-20,PctHouseholdsNOvehicle,6.8,PctPopNONEnglishHome,5.6,pctPopLEQpovertylevel,13.9,HomeInternetAccessRangeLow,1,HomeInternetAccessRangeHigh,20,LSAD,County,CENSUSAREA,249.031000
id,0500000US13207,STATE,13,COUNTY,207,name,Monroe,Active,54,Inactive,5,Emeritus,0,Shorthand_FIPS,207,region,13207,householdsHalfMileofPublicTransport,0,pctHouseholdsHalfMileofPublicTransport,0,HomeInternetAccessRange,1-20,PctHouseholdsNOvehicle,6.3,PctPopNONEnglishHome,3.2,pctPopLEQpovertylevel,13.4,HomeInternetAccessRangeLow,1,HomeInternetAccessRangeHigh,20,LSAD,County,CENSUSAREA,395.658000
id,0500000US13209,STATE,13,COUNTY,209,name,Montgomery,Active,2,Inactive,0,Emeritus,0,Shorthand_FIPS,209,region,13209,householdsHalfMileofPublicTransport,2241,pctHouseholdsHalfMileofPublicTransport,49.1,HomeInternetAccessRange,1-20,PctHouseholdsNOvehicle,6.2,PctPopNONEnglishHome,6.4,pctPopLEQpovertylevel,24.7,HomeInternetAccessRangeLow,1,HomeInternetAccessRangeHigh,20,LSAD,County,CENSUSAREA,239.523000
id,0500000US13211,STATE,13,COUNTY,211,name,Morgan,Active,37,Inactive,2,Emeritus,1,Shorthand_FIPS,211,region,13211,householdsHalfMileofPublicTransport,0,pctHouseholdsHalfMileofPublicTransport,0,HomeInternetAccessRange,21-40,PctHouseholdsNOvehicle,2.8,PctPopNONEnglishHome,2.3,pctPopLEQpovertylevel,15.3,HomeInternetAccessRangeLow,21,HomeInternetAccessRangeHigh,40,LSAD,County,CENSUSAREA,347.349000
id,0500000US13215,STATE,13,COUNTY,215,name,Muscogee,Active,442,Inactive,29,Emeritus,22,Shorthand_FIPS,215,region,13215,householdsHalfMileofPublicTransport,120176,pctHouseholdsHalfMileofPublicTransport,60.6,HomeInternetAccessRange,41-60,PctHouseholdsNOvehicle,10.5,PctPopNONEnglishHome,9.5,pctPopLEQpovertylevel,20.2,HomeInternetAccessRangeLow,41,HomeInternetAccessRangeHigh,60,LSAD,County,CENSUSAREA,216.385000
id,0500000US13255,STATE,13,COUNTY,255,name,Spalding,Active,79,Inactive,9,Emeritus,9,Shorthand_FIPS,255,region,13255,householdsHalfMileofPublicTransport,0,pctHouseholdsHalfMileofPublicTransport,0,HomeInternetAccessRange,41-60,PctHouseholdsNOvehicle,7.5,PctPopNONEnglishHome,5.2,pctPopLEQpovertylevel,22.6,HomeInternetAccessRangeLow,41,HomeInternetAccessRangeHigh,60,LSAD,County,CENSUSAREA,196.469000
id,0500000US13257,STATE,13,COUNTY,257,name,Stephens,Active,29,Inactive,0,Emeritus,2,Shorthand_FIPS,257,region,13257,householdsHalfMileofPublicTransport,795,pctHouseholdsHalfMileofPublicTransport,3.1,HomeInternetAccessRange,1-20,PctHouseholdsNOvehicle,5.7,PctPopNONEnglishHome,3.9,pctPopLEQpovertylevel,19.3,HomeInternetAccessRangeLow,1,HomeInternetAccessRangeHigh,20,LSAD,County,CENSUSAREA,179.131000
id,0500000US13259,STATE,13,COUNTY,259,name,Stewart,Active,4,Inactive,0,Emeritus,0,Shorthand_FIPS,259,region,13259,householdsHalfMileofPublicTransport,0,pctHouseholdsHalfMileofPublicTransport,0,HomeInternetAccessRange,1-20,PctHouseholdsNOvehicle,15.1,PctPopNONEnglishHome,20.3,pctPopLEQpovertylevel,35,HomeInternetAccessRangeLow,1,HomeInternetAccessRangeHigh,20,LSAD,County,CENSUSAREA,458.733000
id,0500000US13261,STATE,13,COUNTY,261,name,Sumter,Active,40,Inactive,3,Emeritus,2,Shorthand_FIPS,261,region,13261,householdsHalfMileofPublicTransport,0,pctHouseholdsHalfMileofPublicTransport,0,HomeInternetAccessRange,21-40,PctHouseholdsNOvehicle,13.1,PctPopNONEnglishHome,7,pctPopLEQpovertylevel,31.6,HomeInternetAccessRangeLow,21,HomeInternetAccessRangeHigh,40,LSAD,County,CENSUSAREA,482.697000
id,0500000US13263,STATE,13,COUNTY,263,name,Talbot,Active,4,Inactive,0,Emeritus,1,Shorthand_FIPS,263,region,13263,householdsHalfMileofPublicTransport,0,pctHouseholdsHalfMileofPublicTransport,0,HomeInternetAccessRange,1-20,PctHouseholdsNOvehicle,11.3,PctPopNONEnglishHome,3.1,pctPopLEQpovertylevel,18.4,HomeInternetAccessRangeLow,1,HomeInternetAccessRangeHigh,20,LSAD,County,CENSUSAREA,391.389000
id,0500000US13265,STATE,13,COUNTY,265,name,Taliaferro,Active,1,Inactive,0,Emeritus,1,Shorthand_FIPS,265,region,13265,householdsHalfMileofPublicTransport,0,pctHouseholdsHalfMileofPublicTransport,0,HomeInternetAccessRange,1-20,PctHouseholdsNOvehicle,14.8,PctPopNONEnglishHome,0.8,pctPopLEQpovertylevel,31.2,HomeInternetAccessRangeLow,1,HomeInternetAccessRangeHigh,20,LSAD,County,CENSUSAREA,194.608000
id,0500000US13273,STATE,13,COUNTY,273,name,Terrell,Active,7,Inactive,0,Emeritus,1,Shorthand_FIPS,273,region,13273,householdsHalfMileofPublicTransport,0,pctHouseholdsHalfMileofPublicTransport,0,HomeInternetAccessRange,1-20,PctHouseholdsNOvehicle,13.9,PctPopNONEnglishHome,2.1,pctPopLEQpovertylevel,33.1,HomeInternetAccessRangeLow,1,HomeInternetAccessRangeHigh,20,LSAD,County,CENSUSAREA,335.439000
id,0500000US13275,STATE,13,COUNTY,275,name,Thomas,Active,70,Inactive,3,Emeritus,3,Shorthand_FIPS,275,region,13275,householdsHalfMileofPublicTransport,0,pctHouseholdsHalfMileofPublicTransport,0,HomeInternetAccessRange,21-40,PctHouseholdsNOvehicle,9.9,PctPopNONEnglishHome,4.3,pctPopLEQpovertylevel,26.3,HomeInternetAccessRangeLow,21,HomeInternetAccessRangeHigh,40,LSAD,County,CENSUSAREA,544.596000
id,0500000US13277,STATE,13,COUNTY,277,name,Tift,Active,82,Inactive,2,Emeritus,2,Shorthand_FIPS,277,region,13277,householdsHalfMileofPublicTransport,0,pctHouseholdsHalfMileofPublicTransport,0,HomeInternetAccessRange,21-40,PctHouseholdsNOvehicle,10.4,PctPopNONEnglishHome,11.4,pctPopLEQpovertylevel,2.7.7,HomeInternetAccessRangeLow,21,HomeInternetAccessRangeHigh,40,LSAD,County,CENSUSAREA,258.915000
id,0500000US13279,STATE,13,COUNTY,279,name,Toombs,Active,43,Inactive,4,Emeritus,2,Shorthand_FIPS,279,region,13279,householdsHalfMileofPublicTransport,0,pctHouseholdsHalfMileofPublicTransport,0,HomeInternetAccessRange,1-20,PctHouseholdsNOvehicle,10,PctPopNONEnglishHome,9.5,pctPopLEQpovertylevel,25.9,HomeInternetAccessRangeLow,1,HomeInternetAccessRangeHigh,20,LSAD,County,CENSUSAREA,364.005000
id,0500000US13281,STATE,13,COUNTY,281,name,Towns,Active,19,Inactive,6,Emeritus,6,Shorthand_FIPS,281,region,13281,householdsHalfMileofPublicTransport,0,pctHouseholdsHalfMileofPublicTransport,0,HomeInternetAccessRange,21-40,PctHouseholdsNOvehicle,5,PctPopNONEnglishHome,4,pctPopLEQpovertylevel,16.9,HomeInternetAccessRangeLow,21,HomeInternetAccessRangeHigh,40,LSAD,County,CENSUSAREA,166.563000
id,0500000US13283,STATE,13,COUNTY,283,name,Treutlen,Active,4,Inactive,0,Emeritus,0,Shorthand_FIPS,283,region,13283,householdsHalfMileofPublicTransport,0,pctHouseholdsHalfMileofPublicTransport,0,HomeInternetAccessRange,1-20,PctHouseholdsNOvehicle,5.4,PctPopNONEnglishHome,1.3,pctPopLEQpovertylevel,22.1,HomeInternetAccessRangeLow,1,HomeInternetAccessRangeHigh,20,LSAD,County,CENSUSAREA,199.436000
id,0500000US13287,STATE,13,COUNTY,287,name,Turner,Active,7,Inactive,0,Emeritus,0,Shorthand_FIPS,287,region,13287,householdsHalfMileofPublicTransport,0,pctHouseholdsHalfMileofPublicTransport,0,HomeInternetAccessRange,1-20,PctHouseholdsNOvehicle,6.2,PctPopNONEnglishHome,5.4,pctPopLEQpovertylevel,24.8,HomeInternetAccessRangeLow,1,HomeInternetAccessRangeHigh,20,LSAD,County,CENSUSAREA,285.393000
id,0500000US13237,STATE,13,COUNTY,237,name,Putnam,Active,17,Inactive,6,Emeritus,4,Shorthand_FIPS,237,region,13237,householdsHalfMileofPublicTransport,0,pctHouseholdsHalfMileofPublicTransport,0,HomeInternetAccessRange,21-40,PctHouseholdsNOvehicle,3.8,PctPopNONEnglishHome,7.6,pctPopLEQpovertylevel,14.2,HomeInternetAccessRangeLow,21,HomeInternetAccessRangeHigh,40,LSAD,County,CENSUSAREA,344.639000
id,0500000US13239,STATE,13,COUNTY,239,name,Quitman,Active,3,Inactive,0,Emeritus,0,Shorthand_FIPS,239,region,13239,householdsHalfMileofPublicTransport,0,pctHouseholdsHalfMileofPublicTransport,0,HomeInternetAccessRange,21-40,PctHouseholdsNOvehicle,8.6,PctPopNONEnglishHome,2.1,pctPopLEQpovertylevel,28.7,HomeInternetAccessRangeLow,21,HomeInternetAccessRangeHigh,40,LSAD,County,CENSUSAREA,151.237000
id,0500000US13243,STATE,13,COUNTY,243,name,Randolph,Active,6,Inactive,0,Emeritus,0,Shorthand_FIPS,243,region,13243,householdsHalfMileofPublicTransport,0,pctHouseholdsHalfMileofPublicTransport,0,HomeInternetAccessRange,1-20,PctHouseholdsNOvehicle,21.7,PctPopNONEnglishHome,2.7,pctPopLEQpovertylevel,32.6,HomeInternetAccessRangeLow,1,HomeInternetAccessRangeHigh,20,LSAD,County,CENSUSAREA,428.236000
id,0500000US13247,STATE,13,COUNTY,247,name,Rockdale,Active,178,Inactive,8,Emeritus,9,Shorthand_FIPS,247,region,13247,householdsHalfMileofPublicTransport,3063,pctHouseholdsHalfMileofPublicTransport,3.6,HomeInternetAccessRange,61-81,PctHouseholdsNOvehicle,4.5,PctPopNONEnglishHome,11.5,pctPopLEQpovertylevel,15.9,HomeInternetAccessRangeLow,61,HomeInternetAccessRangeHigh,81,LSAD,County,CENSUSAREA,129.793000
id,0500000US13253,STATE,13,COUNTY,253,name,Seminole,Active,7,Inactive,1,Emeritus,1,Shorthand_FIPS,253,region,13253,householdsHalfMileofPublicTransport,0,pctHouseholdsHalfMileofPublicTransport,0,HomeInternetAccessRange,1-20,PctHouseholdsNOvehicle,5.4,PctPopNONEnglishHome,1.8,pctPopLEQpovertylevel,22.6,HomeInternetAccessRangeLow,1,HomeInternetAccessRangeHigh,20,LSAD,County,CENSUSAREA,235.226000
id,0500000US13311,STATE,13,COUNTY,311,name,White,Active,27,Inactive,1,Emeritus,2,Shorthand_FIPS,311,region,13311,householdsHalfMileofPublicTransport,0,pctHouseholdsHalfMileofPublicTransport,0,HomeInternetAccessRange,1-20,PctHouseholdsNOvehicle,6.4,PctPopNONEnglishHome,2.9,pctPopLEQpovertylevel,19,HomeInternetAccessRangeLow,1,HomeInternetAccessRangeHigh,20,LSAD,County,CENSUSAREA,240.686000
id,0500000US13315,STATE,13,COUNTY,315,name,Wilcox,Active,3,Inactive,0,Emeritus,0,Shorthand_FIPS,315,region,13315,householdsHalfMileofPublicTransport,0,pctHouseholdsHalfMileofPublicTransport,0,HomeInternetAccessRange,1-20,PctHouseholdsNOvehicle,7.2,PctPopNONEnglishHome,3.8,pctPopLEQpovertylevel,26.1,HomeInternetAccessRangeLow,1,HomeInternetAccessRangeHigh,20,LSAD,County,CENSUSAREA,377.705000
id,0500000US13321,STATE,13,COUNTY,321,name,Worth,Active,6,Inactive,2,Emeritus,0,Shorthand_FIPS,321,region,13321,householdsHalfMileofPublicTransport,0,pctHouseholdsHalfMileofPublicTransport,0,HomeInternetAccessRange,21-40,PctHouseholdsNOvehicle,7.6,PctPopNONEnglishHome,2.3,pctPopLEQpovertylevel,20.5,HomeInternetAccessRangeLow,21,HomeInternetAccessRangeHigh,4,LSAD,County,CENSUSAREA,570.702000
id,0500000US13293,STATE,13,COUNTY,293,name,Upson,Active,32,Inactive,2,Emeritus,1,Shorthand_FIPS,293,region,13293,householdsHalfMileofPublicTransport,0,pctHouseholdsHalfMileofPublicTransport,0,HomeInternetAccessRange,21-40,PctHouseholdsNOvehicle,10.6,PctPopNONEnglishHome,2.1,pctPopLEQpovertylevel,22.5,HomeInternetAccessRangeLow,21,HomeInternetAccessRangeHigh,40,LSAD,County,CENSUSAREA,323.437000
id,0500000US13295,STATE,13,COUNTY,295,name,Walker,Active,61,Inactive,4,Emeritus,1,Shorthand_FIPS,295,region,13295,householdsHalfMileofPublicTransport,1216,pctHouseholdsHalfMileofPublicTransport,1.8,HomeInternetAccessRange,41-60,PctHouseholdsNOvehicle,5.3,PctPopNONEnglishHome,2.3,pctPopLEQpovertylevel,17.4,HomeInternetAccessRangeLow,41,HomeInternetAccessRangeHigh,60,LSAD,County,CENSUSAREA,446.379000
id,0500000US13297,STATE,13,COUNTY,297,name,Walton,Active,105,Inactive,8,Emeritus,9,Shorthand_FIPS,297,region,13297,householdsHalfMileofPublicTransport,0,pctHouseholdsHalfMileofPublicTransport,0,HomeInternetAccessRange,21-40,PctHouseholdsNOvehicle,4.6,PctPopNONEnglishHome,6.1,pctPopLEQpovertylevel,14.7,HomeInternetAccessRangeLow,21,HomeInternetAccessRangeHigh,40,LSAD,County,CENSUSAREA,325.680000
id,0500000US13299,STATE,13,COUNTY,299,name,Ware,Active,64,Inactive,2,Emeritus,2,Shorthand_FIPS,299,region,13299,householdsHalfMileofPublicTransport,0,pctHouseholdsHalfMileofPublicTransport,0,HomeInternetAccessRange,41-60,PctHouseholdsNOvehicle,11,PctPopNONEnglishHome,5.6,pctPopLEQpovertylevel,26.2,HomeInternetAccessRangeLow,41,HomeInternetAccessRangeHigh,60,LSAD,County,CENSUSAREA,892.461000
id,0500000US13307,STATE,13,COUNTY,307,name,Webster,Active,0,Inactive,0,Emeritus,0,Shorthand_FIPS,307,region,13307,householdsHalfMileofPublicTransport,0,pctHouseholdsHalfMileofPublicTransport,0,HomeInternetAccessRange,1-20,PctHouseholdsNOvehicle,9.2,PctPopNONEnglishHome,1.2,pctPopLEQpovertylevel,24.6,HomeInternetAccessRangeLow,1,HomeInternetAccessRangeHigh,20,LSAD,County,CENSUSAREA,209.118000
